[{"OBJECT_NAME":"AMAZONIA 1","OBJECT_ID":"2021-015A","EPOCH":"2026-03-09T17:05:01.705920","MEAN_MOTION":14.40836291,"ECCENTRICITY":0.00039353,"INCLINATION":98.4264,"RA_OF_ASC_NODE":142.7385,"ARG_OF_PERICENTER":123.8493,"MEAN_ANOMALY":236.3071,"EPHEMERIS_TYPE":0,"CLASSIFICATION_TYPE":"U","NORAD_CAT_ID":47699,"ELEMENT_SET_NO":999,"REV_AT_EPOCH":26432,"BSTAR":0.00010973552,"MEAN_MOTION_DOT":3.08e-6,"MEAN_MOTION_DDOT":0},{"OBJECT_NAME":"METEOR 2-8 DEB","OBJECT_ID":"1982-025AL","EPOCH":"2026-03-05T22:32:27.666240","MEAN_MOTION":14.35434696,"ECCENTRICITY":0.00198768,"INCLINATION":82.5171,"RA_OF_ASC_NODE":250.8647,"ARG_OF_PERICENTER":306.0536,"MEAN_ANOMALY":53.881,"EPHEMERIS_TYPE":0,"CLASSIFICATION_TYPE":"U","NORAD_CAT_ID":36350,"ELEMENT_SET_NO":999,"REV_AT_EPOCH":65745,"BSTAR":0.0019313528,"MEAN_MOTION_DOT":5.576e-5,"MEAN_MOTION_DDOT":0}]
